INTELSAT 11 (IS-11)     
1 32253C 07044B   23114.00000000 -.00000178  00000-0  00000-0 0  1147
2 32253   0.5823  92.4535 0003024 306.1017 130.2053  1.00272054    16
HORIZONS-2              
1 32388C 07063B   23110.00000000 -.00000164  00000-0  00000-0 0  1104
2 32388   0.0298 108.6769 0002134 286.1445  99.1986  1.00271337    19
HORIZONS-2              
1 32388C 07063B   23114.00000000 -.00000165  00000-0  00000-0 0  1143
2 32388   0.0004 150.9880 0001988 250.5860  96.3940  1.00271053    14
HORIZONS-2          [PM]
1 32388C 07063B   23114.89265046 -.00003904  00000-0  00000-0 0  1147
2 32388   0.0000 280.8949 0002117 122.9559  56.3540  1.00270154    14
GALAXY 18 (G-18)        
1 32951C 08024A   23110.00000000  .00000261  00000-0  00000-0 0  1105
2 32951   0.0068 259.8928 0003024 139.6745  45.2588  1.00272407    19
GALAXY 18 (G-18)    [PM]
1 32951C 08024A   23111.59096065 -.00002624  00000-0  00000-0 0  1113
2 32951   0.0002 108.8901 0002902 128.3917  61.8522  1.00271167    15
GALAXY 18 (G-18)    [PM]
1 32951C 08024A   23113.60416667 -.00003522  00000-0  00000-0 0  1131
2 32951   0.0001 295.2987 0002872  92.7563 277.8170  1.00271915    15
GALAXY 18 (G-18)        
1 32951C 08024A   23114.00000000 -.00004072  00000-0  00000-0 0  1148
2 32951   0.0325  73.8704 0002849 313.8665  61.0251  1.00271818    10
INTELSAT 25 (IS-25)     
1 33153C 08034A   23110.00000000 -.00000134  00000-0  00000-0 0  1101
2 33153   0.0206 304.7131 0002819  83.2323 148.3794  1.00272464    18
INTELSAT 25 (IS-25) [PM]
1 33153C 08034A   23113.35295139 -.00000133  00000-0  00000-0 0  1133
2 33153   0.0462  69.7913 0002810  91.8812 145.0199  1.00272619    12
INTELSAT 25 (IS-25)     
1 33153C 08034A   23114.00000000 -.00000135  00000-0  00000-0 0  1140
2 33153   0.0274  15.2879 0002806  18.0425 146.9399  1.00271569    11
GALAXY 19 (G-19)    [PM]
1 33376C 08045A   23108.03047454 -.00000099  00000-0  00000-0 0  1081
2 33376   0.0048 243.6427 0002655 140.9721  95.2193  1.00272367    14
GALAXY 19 (G-19)        
1 33376C 08045A   23110.00000000 -.00003442  00000-0  00000-0 0  1105
2 33376   0.0013 266.9612 0002672 117.7803  86.0687  1.00272830    13
GALAXY 19 (G-19)        
1 33376C 08045A   23114.00000000 -.00000053  00000-0  00000-0 0  1148
2 33376   0.0045 277.3102 0002776 118.0938  79.3651  1.00269484    13
INTELSAT 14 (IS-14)     
1 36097C 09064A   23110.00000000 -.00004154  00000-0  00000-0 0  1101
2 36097   0.0000 183.4676 0002347 204.1698 135.1835  1.00273010    19
INTELSAT 14 (IS-14)     
1 36097C 09064A   23114.00000000 -.00002046  00000-0  00000-0 0  1147
2 36097   0.0005 155.6520 0002323 237.7703 133.3523  1.00272331    15
INTELSAT 14 (IS-14) [PM]
1 36097C 09064A   23114.30082176 -.00000183  00000-0  00000-0 0  1144
2 36097   0.0155 282.7200 0002310 109.2872 243.3610  1.00270886    16
INTELSAT 15 (IS-15)     
1 36106C 09067A   23110.00000000 -.00000096  00000-0  00000-0 0  1106
2 36106   0.0225 305.6815 0002190  84.9553 262.3304  1.00272199    13
INTELSAT 15 (IS-15)     
1 36106C 09067A   23114.00000000 -.00000093  00000-0  00000-0 0  1141
2 36106   0.0236 358.0869 0002180  37.7348 261.0909  1.00271941    14
INTELSAT 15 (IS-15) [PM]
1 36106C 09067A   23117.00317130 -.00000172  00000-0  00000-0 0  1170
2 36106   0.0142   3.1428 0002240  21.4942 276.3900  1.00271903    14
INTELSAT 16 (IS-16)     
1 36397C 10006A   23110.00000000 -.00000155  00000-0  00000-0 0  1109
2 36397   0.0189 299.9116 0001552  93.8949  97.8206  1.00271980    11
INTELSAT 16 (IS-16)     
1 36397C 10006A   23114.00000000 -.00000156  00000-0  00000-0 0  1148
2 36397   0.0217 357.9429 0001562  42.5841  95.0408  1.00271405    14
INTELSAT 16 (IS-16) [PM]
1 36397C 10006A   23115.02396991 -.00000156  00000-0  00000-0 0  1159
2 36397   0.0260  26.3178 0001577  11.7201 107.1666  1.00272909    15
INTELSAT 17 (IS-17)     
1 37238C 10065B   23110.00000000  .00000091  00000-0  00000-0 0  1107
2 37238   0.0141 222.5035 0002414 161.8443 249.4708  1.00270648    11
INTELSAT 17 (IS-17) [PM]
1 37238C 10065B   23113.49309028  .00000089  00000-0  00000-0 0  1135
2 37238   0.0183 239.0615 0002248 145.1107  70.5948  1.00274875    16
INTELSAT 17 (IS-17)     
1 37238C 10065B   23114.00000000  .00000089  00000-0  00000-0 0  1142
2 37238   0.0175 236.1692 0002235 150.0754 251.5154  1.00275189    18
INTELSAT NEW DAWN       
1 37392C 11016A   23110.00000000 -.00003307  00000-0  00000-0 0  1109
2 37392   0.0055 196.4014 0000508 167.3098 236.9041  1.00270958    16
INTELSAT NEW DAWN       
1 37392C 11016A   23114.00000000 -.00003345  00000-0  00000-0 0  1149
2 37392   0.0334 107.0643 0000435 280.3876 217.1135  1.00273699    11
INTELSAT NEW DAWN   [PM]
1 37392C 11016A   23115.23547454  .00000246  00000-0  00000-0 0  1151
2 37392   0.0304   7.5696 0000811  73.4287 249.5431  1.00271028    17
INTELSAT 18 (IS-18)     
1 37834C 11056A   23110.00000000 -.00003840  00000-0  00000-0 0  1106
2 37834   0.0412  36.5626 0001730 335.6179  15.6485  1.00269285    10
INTELSAT 18 (IS-18) [PM]
1 37834C 11056A   23113.18078704  .00000108  00000-0  00000-0 0  1130
2 37834   0.0146 311.2901 0001710  60.8669  83.8731  1.00273004    17
INTELSAT 18 (IS-18)     
1 37834C 11056A   23114.00000000  .00000143  00000-0  00000-0 0  1146
2 37834   0.0140 320.5144 0001663  53.4114  17.8330  1.00273174    13
INTELSAT 22 (IS-22)     
1 38098C 12011A   23110.00000000 -.00003042  00000-0  00000-0 0  1105
2 38098   0.0050 169.2417 0002171 218.6791 251.9870  1.00272574    11
INTELSAT 22 (IS-22)     
1 38098C 12011A   23114.00000000  .00000104  00000-0  00000-0 0  1148
2 38098   0.0166 134.2634 0002154 257.5823 252.0207  1.00273374    16
INTELSAT 22 (IS-22) [PM]
1 38098C 12011A   23116.19475694  .00000031  00000-0  00000-0 0  1166
2 38098   0.0375  79.4815 0002199 313.2070 323.4678  1.00271603    10
INTELSAT 19 (IS-19)     
1 38356C 12030A   23110.00000000 -.00004531  00000-0  00000-0 0  1107
2 38356   0.0000 264.9167 0002963 117.0381 351.8697  1.00270403    10
INTELSAT 19 (IS-19) [PM]
1 38356C 12030A   23113.71458333  .00000035  00000-0  00000-0 0  1131
2 38356   0.0057 283.4913 0003046 104.9557 246.2777  1.00273590    16
INTELSAT 19 (IS-19)     
1 38356C 12030A   23114.00000000 -.00004018  00000-0  00000-0 0  1145
2 38356   0.0049 284.5877 0003023 103.8371 349.3333  1.00273380    15
INTELSAT 20 (IS-20) [PM]
1 38740C 12043A   23109.10234954  .00000051  00000-0  00000-0 0  1094
2 38740   0.0040 260.8251 0001983 326.3888  85.0512  1.00272401    10
INTELSAT 20 (IS-20)     
1 38740C 12043A   23110.00000000 -.00003058  00000-0  00000-0 0  1101
2 38740   0.0143 167.1487 0001862  20.6902  88.4704  1.00270267    19
INTELSAT 20 (IS-20)     
1 38740C 12043A   23114.00000000 -.00003224  00000-0  00000-0 0  1144
2 38740   0.0168 160.8406 0001722  32.5112  86.9097  1.00271697    13
INTELSAT 21 (IS-21)     
1 38749C 12045A   23110.00000000 -.00000195  00000-0  00000-0 0  1101
2 38749   0.0000 292.5651 0002016  88.0418 129.2123  1.00273424    15
INTELSAT 21 (IS-21)     
1 38749C 12045A   23114.00000000 -.00002260  00000-0  00000-0 0  1144
2 38749   0.0045   2.0575 0001976  23.9678 127.7519  1.00272573    19
INTELSAT 21 (IS-21) [PM]
1 38749C 12045A   23114.33546296 -.00000195  00000-0  00000-0 0  1147
2 38749   0.0165 288.7869 0001774  97.0437 249.0432  1.00270777    18
INTELSAT 23 (IS-23)     
1 38867C 12057A   23110.00000000 -.00000195  00000-0  00000-0 0  1105
2 38867   0.0202 247.5552 0001413 117.0252 150.2454  1.00271436    11
INTELSAT 23 (IS-23) [PM]
1 38867C 12057A   23112.84574074 -.00000195  00000-0  00000-0 0  1128
2 38867   0.0349 164.7051 0000848 156.6133 140.7326  1.00281550    15
INTELSAT 23 (IS-23)     
1 38867C 12057A   23114.00000000 -.00000195  00000-0  00000-0 0  1143
2 38867   0.0137 245.8404 0001169  89.3168 183.5904  1.00283364    12
INTELSAT 30 (IS-30) [PM]
1 40271C 14062A   23109.25190972 -.00003927  00000-0  00000-0 0  1092
2 40271   0.0522  42.3012 0001274 131.0994  29.3158  1.00272746    16
INTELSAT 30 (IS-30)     
1 40271C 14062A   23110.00000000 -.00000105  00000-0  00000-0 0  1106
2 40271   0.0000 246.1231 0001307 205.3799  21.2674  1.00270642    16
INTELSAT 30 (IS-30)     
1 40271C 14062A   23114.00000000 -.00003637  00000-0  00000-0 0  1147
2 40271   0.0343  72.7940 0001201   5.1212  38.8012  1.00270793    12
INTELSAT 34 (IS-34)     
1 40874C 15039A   23110.00000000 -.00000195  00000-0  00000-0 0  1109
2 40874   0.0184 284.1554 0000382 315.5114 272.6627  1.00270189    11
INTELSAT 34 (IS-34) [PM]
1 40874C 15039A   23110.00916667 -.00000195  00000-0  00000-0 0  1104
2 40874   0.0247 294.6476 0000382 321.5123 259.4694  1.00273184    12
INTELSAT 34 (IS-34)     
1 40874C 15039A   23114.00000000 -.00000195  00000-0  00000-0 0  1147
2 40874   0.0186 293.5350 0000619 298.3453 284.3917  1.00271108    12
INTELSAT 31 (IS-31)     
1 41581C 16035A   23110.00000000 -.00000061  00000-0  00000-0 0  1104
2 41581   0.0200 249.3544 0002068 333.1205 250.2989  1.00270717    18
INTELSAT 31 (IS-31) [PM]
1 41581C 16035A   23111.45143519 -.00000061  00000-0  00000-0 0  1118
2 41581   0.0662  59.3010 0001984 329.5460 247.8687  1.00272779    12
INTELSAT 31 (IS-31)     
1 41581C 16035A   23114.00000000 -.00000061  00000-0  00000-0 0  1142
2 41581   0.0153 249.6015 0001935 337.1748 249.9386  1.00270979    15
INTELSAT 36 (IS-36) [PM]
1 41747C 16053A   23109.31284722 -.00003490  00000-0  00000-0 0  1092
2 41747   0.0538  47.6431 0001017  36.0617 304.5541  1.00272105    19
INTELSAT 36 (IS-36)     
1 41747C 16053A   23110.00000000 -.00000001  00000-0  00000-0 0  1102
2 41747   0.0128 311.1220 0001020  28.6962 296.4969  1.00270295    14
INTELSAT 36 (IS-36)     
1 41747C 16053A   23114.00000000  .00000066  00000-0  00000-0 0  1140
2 41747   0.0168 332.9282 0001221 359.3748 307.9606  1.00271505    17
